IRIDIUM 138             
1 43071U 17083B   26160.50239860  .00000143  00000+0  44108-4 0  9990
2 43071  86.3974 324.9234 0002392  88.2931 271.8539 14.34217922443032
IRIDIUM 116             
1 43072U 17083C   26160.47068446  .00000129  00000+0  39040-4 0  9990
2 43072  86.3958 325.2284 0001875  94.8830 265.2580 14.34217719443060
IRIDIUM 130             
1 43073U 17083D   26160.50873919  .00000018  00000+0 -69559-6 0  9992
2 43073  86.3967 325.4871 0001958  88.7751 271.3669 14.34217990443013
IRIDIUM 151             
1 43074U 17083E   26160.48336992  .00000059  00000+0  14177-4 0  9993
2 43074  86.3963 325.2809 0002122  91.6347 268.5092 14.34217685443038
IRIDIUM 134             
1 43075U 17083F   26160.45165679 -.00000002  00000+0 -78709-5 0  9995
2 43075  86.3957 325.3019 0001974  89.3709 270.7713 14.34217640442996
IRIDIUM 137             
1 43076U 17083G   26160.46434208  .00000035  00000+0  55352-5 0  9997
2 43076  86.3962 325.3892 0002033 103.0477 257.0946 14.34217427443063
IRIDIUM 141             
1 43077U 17083H   26160.52776865  .00000031  00000+0  39387-5 0  9999
2 43077  86.3960 325.1939 0002222  90.9170 269.2281 14.34217521443079
IRIDIUM 153             
1 43078U 17083J   26160.41017863  .00000012  00000+0 -26497-5 0  9992
2 43078  86.3954 293.7232 0002218  90.7621 269.3829 14.34217576444163
IRIDIUM 131             
1 43079U 17083K   26160.44531448 -.00000025  00000+0 -16121-4 0  9993
2 43079  86.3961 325.4138 0002091  91.8718 268.2717 14.34217266442997
IRIDIUM 144             
1 43249U 18030A   26160.34675215 -.00000033  00000+0 -18823-4 0  9995
2 43249  86.3949 293.6790 0001939  95.1708 264.9709 14.34217275429010
IRIDIUM 149             
1 43250U 18030B   26160.35309513  .00000018  00000+0 -75963-6 0  9995
2 43250  86.3949 293.6435 0002115  93.4568 266.6870 14.34217618429031
IRIDIUM 157             
1 43251U 18030C   26160.44189157  .00000036  00000+0  57085-5 0  9999
2 43251  86.3953 293.6591 0002192  94.1703 265.9743 14.34217734429023
IRIDIUM 140             
1 43252U 18030D   26160.46091884  .00000014  00000+0 -22118-5 0  9997
2 43252  86.3952 293.6640 0002035  92.8261 267.3168 14.34217586429086
IRIDIUM 145             
1 43253U 18030E   26160.44823228  .00000124  00000+0  37148-4 0  9990
2 43253  86.3952 293.6412 0001898  97.5061 262.6351 14.34218193429010
IRIDIUM 146             
1 43254U 18030F   26160.35943763  .00000031  00000+0  41362-5 0  9999
2 43254  86.3953 293.6906 0002092  95.7827 264.3608 14.34217680429011
IRIDIUM 148             
1 43255U 18030G   26160.46726146 -.00000004  00000+0 -84420-5 0  9990
2 43255  86.3953 293.6888 0002089  97.3061 262.8372 14.34217369429065
IRIDIUM 142             
1 43256U 18030H   26160.43554777  .00000060  00000+0  14361-4 0  9993
2 43256  86.3952 293.5912 0002025  96.2127 263.9300 14.34218034429022
IRIDIUM 150             
1 43257U 18030J   26160.40383568  .00000042  00000+0  77731-5 0  9990
2 43257  86.3956 293.7206 0002139  92.4579 267.6862 14.34217849429049
IRIDIUM 143             
1 43258U 18030K   26160.45457633 -.00000150  00000+0 -60680-4 0  9997
2 43258  86.3955 293.7917 0001939  94.6140 265.5277 14.34216912428982
IRIDIUM 161             
1 43478U 18047C   26160.33461212  .00000284  00000+0  78467-4 0  9992
2 43478  86.4482  91.7541 0002556  87.7584 272.3910 14.43278538424003
IRIDIUM 152             
1 43479U 18047D   26160.35752646  .00000019  00000+0 -39569-6 0  9998
2 43479  86.3958  91.6057 0002374  84.0264 276.1202 14.34217727421360
IRIDIUM 147             
1 43480U 18047E   26160.50340565  .00000060  00000+0  14240-4 0  9992
2 43480  86.3959  91.5497 0002137  84.6699 275.4741 14.34217689421384
IRIDIUM 110             
1 43481U 18047F   26160.30044368  .00000005  00000+0 -54307-5 0  9992
2 43481  86.3961  91.7263 0002473  86.0089 274.1390 14.34217480421344
IRIDIUM 162             
1 43482U 18047G   26160.32831531  .00000292  00000+0  80958-4 0  9998
2 43482  86.4479  91.6479 0002343  83.2593 276.8875 14.43277203423992
IRIDIUM 160             
1 43569U 18061A   26160.45558425  .00000001  00000+0 -66170-5 0  9992
2 43569  86.3967  60.0300 0002255  86.3827 273.7627 14.34217610412263
IRIDIUM 166             
1 43570U 18061B   26160.20188220  .00000175  00000+0  55462-4 0  9991
2 43570  86.3990  60.0824 0002487  83.0339 277.1140 14.34215535412252
IRIDIUM 158             
1 43571U 18061C   26160.23993579  .00000096  00000+0  27330-4 0  9991
2 43571  86.3965  60.0807 0002257  82.5382 277.6071 14.34217659412227
IRIDIUM 165             
1 43572U 18061D   26160.47460811  .00000151  00000+0  46974-4 0  9993
2 43572  86.3969  60.0288 0002083  85.8848 274.2585 14.34216464412287
IRIDIUM 155             
1 43573U 18061E   26160.43655620  .00000020  00000+0 -80701-7 0  9999
2 43573  86.3962  59.9140 0002163  82.5540 277.5902 14.34217736412245
IRIDIUM 154             
1 43574U 18061F   26160.41752829  .00000044  00000+0  84825-5 0  9991
2 43574  86.3968  60.0553 0002041  86.9586 273.1843 14.34217753412296
IRIDIUM 163             
1 43575U 18061G   26160.46825931  .00000096  00000+0  27216-4 0  9999
2 43575  86.3966  59.9498 0002321  83.5149 276.6311 14.34215605412279
