OBJECT_NAME,OBJECT_ID,EPOCH,MEAN_MOTION,ECCENTRICITY,INCLINATION,RA_OF_ASC_NODE,ARG_OF_PERICENTER,MEAN_ANOMALY,EPHEMERIS_TYPE,CLASSIFICATION_TYPE,NORAD_CAT_ID,ELEMENT_SET_NO,REV_AT_EPOCH,BSTAR,MEAN_MOTION_DOT,MEAN_MOTION_DDOT
IRIDIUM 138,2017-083B,2026-06-09T12:03:27.239040,14.34217922,.0002392,86.3974,324.9234,88.2931,271.8539,0,U,43071,999,44303,.44108E-4,.143E-5,0
IRIDIUM 116,2017-083C,2026-06-09T11:17:47.137344,14.34217719,.0001875,86.3958,325.2284,94.8830,265.2580,0,U,43072,999,44306,.3904E-4,.129E-5,0
IRIDIUM 130,2017-083D,2026-06-09T12:12:35.066016,14.34217990,.0001958,86.3967,325.4871,88.7751,271.3669,0,U,43073,999,44301,-.69559E-6,.18E-6,0
IRIDIUM 151,2017-083E,2026-06-09T11:36:03.161088,14.34217685,.0002122,86.3963,325.2809,91.6347,268.5092,0,U,43074,999,44303,.14177E-4,.59E-6,0
IRIDIUM 134,2017-083F,2026-06-09T10:50:23.146656,14.34217640,.0001974,86.3957,325.3019,89.3709,270.7713,0,U,43075,999,44299,-.78709E-5,-.2E-7,0
IRIDIUM 137,2017-083G,2026-06-09T11:08:39.155712,14.34217427,.0002033,86.3962,325.3892,103.0477,257.0946,0,U,43076,999,44306,.55352E-5,.35E-6,0
IRIDIUM 141,2017-083H,2026-06-09T12:39:59.211360,14.34217521,.0002222,86.3960,325.1939,90.9170,269.2281,0,U,43077,999,44307,.39387E-5,.31E-6,0
IRIDIUM 153,2017-083J,2026-06-09T09:50:39.433632,14.34217576,.0002218,86.3954,293.7232,90.7621,269.3829,0,U,43078,999,44416,-.26497E-5,.12E-6,0
IRIDIUM 131,2017-083K,2026-06-09T10:41:15.171072,14.34217266,.0002091,86.3961,325.4138,91.8718,268.2717,0,U,43079,999,44299,-.16121E-4,-.25E-6,0
IRIDIUM 144,2018-030A,2026-06-09T08:19:19.385760,14.34217275,.0001939,86.3949,293.6790,95.1708,264.9709,0,U,43249,999,42901,-.18823E-4,-.33E-6,0
IRIDIUM 149,2018-030B,2026-06-09T08:28:27.419232,14.34217618,.0002115,86.3949,293.6435,93.4568,266.6870,0,U,43250,999,42903,-.75963E-6,.18E-6,0
IRIDIUM 157,2018-030C,2026-06-09T10:36:19.431648,14.34217734,.0002192,86.3953,293.6591,94.1703,265.9743,0,U,43251,999,42902,.57085E-5,.36E-6,0
IRIDIUM 140,2018-030D,2026-06-09T11:03:43.387776,14.34217586,.0002035,86.3952,293.6640,92.8261,267.3168,0,U,43252,999,42908,-.22118E-5,.14E-6,0
IRIDIUM 145,2018-030E,2026-06-09T10:45:27.268992,14.34218193,.0001898,86.3952,293.6412,97.5061,262.6351,0,U,43253,999,42901,.37148E-4,.124E-5,0
IRIDIUM 146,2018-030F,2026-06-09T08:37:35.411232,14.34217680,.0002092,86.3953,293.6906,95.7827,264.3608,0,U,43254,999,42901,.41362E-5,.31E-6,0
IRIDIUM 148,2018-030G,2026-06-09T11:12:51.390144,14.34217369,.0002089,86.3953,293.6888,97.3061,262.8372,0,U,43255,999,42906,-.8442E-5,-.4E-7,0
IRIDIUM 142,2018-030H,2026-06-09T10:27:11.327328,14.34218034,.0002025,86.3952,293.5912,96.2127,263.9300,0,U,43256,999,42902,.14361E-4,.6E-6,0
IRIDIUM 150,2018-030J,2026-06-09T09:41:31.402752,14.34217849,.0002139,86.3956,293.7206,92.4579,267.6862,0,U,43257,999,42904,.77731E-5,.42E-6,0
IRIDIUM 143,2018-030K,2026-06-09T10:54:35.394912,14.34216912,.0001939,86.3955,293.7917,94.6140,265.5277,0,U,43258,999,42898,-.6068E-4,-.15E-5,0
IRIDIUM 161,2018-047C,2026-06-09T08:01:50.487168,14.43278538,.0002556,86.4482,91.7541,87.7584,272.3910,0,U,43478,999,42400,.78467E-4,.284E-5,0
IRIDIUM 152,2018-047D,2026-06-09T08:34:50.286144,14.34217727,.0002374,86.3958,91.6057,84.0264,276.1202,0,U,43479,999,42136,-.39569E-6,.19E-6,0
IRIDIUM 147,2018-047E,2026-06-09T12:04:54.248160,14.34217689,.0002137,86.3959,91.5497,84.6699,275.4741,0,U,43480,999,42138,.1424E-4,.6E-6,0
IRIDIUM 110,2018-047F,2026-06-09T07:12:38.333952,14.34217480,.0002473,86.3961,91.7263,86.0089,274.1390,0,U,43481,999,42134,-.54307E-5,.5E-7,0
IRIDIUM 162,2018-047G,2026-06-09T07:52:46.442784,14.43277203,.0002343,86.4479,91.6479,83.2593,276.8875,0,U,43482,999,42399,.80958E-4,.292E-5,0
IRIDIUM 160,2018-061A,2026-06-09T10:56:02.479200,14.34217610,.0002255,86.3967,60.0300,86.3827,273.7627,0,U,43569,999,41226,-.6617E-5,.1E-7,0
IRIDIUM 166,2018-061B,2026-06-09T04:50:42.622080,14.34215535,.0002487,86.3990,60.0824,83.0339,277.1140,0,U,43570,999,41225,.55462E-4,.175E-5,0
IRIDIUM 158,2018-061C,2026-06-09T05:45:30.452256,14.34217659,.0002257,86.3965,60.0807,82.5382,277.6071,0,U,43571,999,41222,.2733E-4,.96E-6,0
IRIDIUM 165,2018-061D,2026-06-09T11:23:26.140704,14.34216464,.0002083,86.3969,60.0288,85.8848,274.2585,0,U,43572,999,41228,.46974E-4,.151E-5,0
IRIDIUM 155,2018-061E,2026-06-09T10:28:38.455680,14.34217736,.0002163,86.3962,59.9140,82.5540,277.5902,0,U,43573,999,41224,-.80701E-7,.2E-6,0
IRIDIUM 154,2018-061F,2026-06-09T10:01:14.444256,14.34217753,.0002041,86.3968,60.0553,86.9586,273.1843,0,U,43574,999,41229,.84825E-5,.44E-6,0
IRIDIUM 163,2018-061G,2026-06-09T11:14:17.604384,14.34215605,.0002321,86.3966,59.9498,83.5149,276.6311,0,U,43575,999,41227,.27216E-4,.96E-6,0
